{"type": "FeatureCollection", "features": [ {"type": "Feature", "properties": {"norad_id": 34117, "name": "COSMOS 2251 DEB", "group": "cosmos-2251-debris", "lat": -46.17809096234563, "lon": 155.18481505920937, "alt_km": 802.0639844718362, "timestamp": "2025-12-26T19:22:39.303120+00:00", "meta": {"OBJECT_NAME": "COSMOS 2251 DEB", "OBJECT_ID": "1993-036KN", "EPOCH": "2025-12-26T14:59:08.516832", "MEAN_MOTION": 14.40069653, "ECCENTRICITY": 0.00551811, "INCLINATION": 74.0407, "RA_OF_ASC_NODE": 318.1745, "ARG_OF_PERICENTER": 30.6976, "MEAN_ANOMALY": 329.7387, "EPHEMERIS_TYPE": 0, "CLASSIFICATION_TYPE": "U", "NORAD_CAT_ID": 34117, "ELEMENT_SET_NO": 999, "REV_AT_EPOCH": 88323, "BSTAR": 0.0008013995, "MEAN_MOTION_DOT": 2.548e-05, "MEAN_MOTION_DDOT": 0}, "tle": {"line1": "1 34117U 93036KN  25360.62440413  .00002548  00000+0  80140-3 0  9991", "line2": "2 34117  74.0407 318.1745 0055181  30.6976 329.7387 14.40069653883231"}}, "geometry": {"type": "Point", "coordinates": [155.18481505920937, -46.17809096234563]}}, {"type": "Feature", "properties": {"norad_id": 34118, "name": "COSMOS 2251 DEB", "group": "cosmos-2251-debris", "lat": 19.55720924101709, "lon": 34.956752267119, "alt_km": 599.6268723362409, "timestamp": "2025-12-26T19:22:39.303131+00:00", "meta": {"OBJECT_NAME": "COSMOS 2251 DEB", "OBJECT_ID": "1993-036KP", "EPOCH": "2025-12-26T01:39:33.695136", "MEAN_MOTION": 14.94366588, "ECCENTRICITY": 0.00601724, "INCLINATION": 73.9512, "RA_OF_ASC_NODE": 222.3206, "ARG_OF_PERICENTER": 49.0891, "MEAN_ANOMALY": 99.7937, "EPHEMERIS_TYPE": 0, "CLASSIFICATION_TYPE": "U", "NORAD_CAT_ID": 34118, "ELEMENT_SET_NO": 999, "REV_AT_EPOCH": 89375, "BSTAR": 0.001375715, "MEAN_MOTION_DOT": 0.0001534, "MEAN_MOTION_DDOT": 0}, "tle": {"line1": "1 34118U 93036KP  25360.06913999  .00015340  00000+0  13757-2 0  9997", "line2": "2 34118  73.9512 222.3206 0060172  49.0891  99.7937 14.94366588893750"}}, "geometry": {"type": "Point", "coordinates": [34.956752267119, 19.55720924101709]}}, {"type": "Feature", "properties": {"norad_id": 34120, "name": "COSMOS 2251 DEB", "group": "cosmos-2251-debris", "lat": 53.91028323457915, "lon": -144.9506773769484, "alt_km": 791.314946151997, "timestamp": "2025-12-26T19:22:39.303141+00:00", "meta": {"OBJECT_NAME": "COSMOS 2251 DEB", "OBJECT_ID": "1993-036KR", "EPOCH": "2025-12-26T14:13:31.266336", "MEAN_MOTION": 13.98698575, "ECCENTRICITY": 0.01825676, "INCLINATION": 73.99, "RA_OF_ASC_NODE": 192.225, "ARG_OF_PERICENTER": 16.8495, "MEAN_ANOMALY": 38.527, "EPHEMERIS_TYPE": 0, "CLASSIFICATION_TYPE": "U", "NORAD_CAT_ID": 34120, "ELEMENT_SET_NO": 999, "REV_AT_EPOCH": 86174, "BSTAR": 0.0003100595, "MEAN_MOTION_DOT": 4.9e-06, "MEAN_MOTION_DDOT": 0}, "tle": {"line1": "1 34120U 93036KR  25360.59272299  .00000490  00000+0  31006-3 0  9997", "line2": "2 34120  73.9900 192.2250 0182567  16.8495  38.5270 13.98698575861745"}}, "geometry": {"type": "Point", "coordinates": [-144.9506773769484, 53.91028323457915]}}, {"type": "Feature", "properties": {"norad_id": 34121, "name": "COSMOS 2251 DEB", "group": "cosmos-2251-debris", "lat": -65.88882263786343, "lon": 33.16696735698362, "alt_km": 756.6272840557631, "timestamp": "2025-12-26T19:22:39.303151+00:00", "meta": {"OBJECT_NAME": "COSMOS 2251 DEB", "OBJECT_ID": "1993-036KS", "EPOCH": "2025-12-26T15:05:44.340288", "MEAN_MOTION": 13.91982721, "ECCENTRICITY": 0.02411519, "INCLINATION": 73.993, "RA_OF_ASC_NODE": 73.3678, "ARG_OF_PERICENTER": 275.9261, "MEAN_ANOMALY": 198.0674, "EPHEMERIS_TYPE": 0, "CLASSIFICATION_TYPE": "U", "NORAD_CAT_ID": 34121, "ELEMENT_SET_NO": 999, "REV_AT_EPOCH": 85318, "BSTAR": 0.0014117023, "MEAN_MOTION_DOT": 2.259e-05, "MEAN_MOTION_DDOT": 0}, "tle": {"line1": "1 34121U 93036KS  25360.62898542  .00002259  00000+0  14117-2 0  9995", "line2": "2 34121  73.9930  73.3678 0241151 275.9261 198.0674 13.91982721853187"}}, "geometry": {"type": "Point", "coordinates": [33.16696735698362, -65.88882263786343]}}, {"type": "Feature", "properties": {"norad_id": 34122, "name": "COSMOS 2251 DEB", "group": "cosmos-2251-debris", "lat": -71.56670828290332, "lon": 32.380897285291574, "alt_km": 657.7280639642877, "timestamp": "2025-12-26T19:22:39.303162+00:00", "meta": {"OBJECT_NAME": "COSMOS 2251 DEB", "OBJECT_ID": "1993-036KT", "EPOCH": "2025-12-25T16:34:08.283360", "MEAN_MOTION": 14.65194212, "ECCENTRICITY": 0.00850759, "INCLINATION": 74.0361, "RA_OF_ASC_NODE": 93.7165, "ARG_OF_PERICENTER": 346.9472, "MEAN_ANOMALY": 163.709, "EPHEMERIS_TYPE": 0, "CLASSIFICATION_TYPE": "U", "NORAD_CAT_ID": 34122, "ELEMENT_SET_NO": 999, "REV_AT_EPOCH": 88874, "BSTAR": 0.00109519, "MEAN_MOTION_DOT": 6.189e-05, "MEAN_MOTION_DDOT": 0}, "tle": {"line1": "1 34122U 93036KT  25359.69037365  .00006189  00000+0  10952-2 0  9998", "line2": "2 34122  74.0361  93.7165 0085075 346.9472 163.7090 14.65194212888742"}}, "geometry": {"type": "Point", "coordinates": [32.380897285291574, -71.56670828290332]}}, {"type": "Feature", "properties": {"norad_id": 34127, "name": "COSMOS 2251 DEB", "group": "cosmos-2251-debris", "lat": -59.905595071575355, "lon": -10.851587915035706, "alt_km": 778.4832526858327, "timestamp": "2025-12-26T19:22:39.303183+00:00", "meta": {"OBJECT_NAME": "COSMOS 2251 DEB", "OBJECT_ID": "1993-036KY", "EPOCH": "2025-12-26T12:00:14.305248", "MEAN_MOTION": 14.31664332, "ECCENTRICITY": 0.01144657, "INCLINATION": 74.1802, "RA_OF_ASC_NODE": 18.9928, "ARG_OF_PERICENTER": 216.1466, "MEAN_ANOMALY": 295.7094, "EPHEMERIS_TYPE": 0, "CLASSIFICATION_TYPE": "U", "NORAD_CAT_ID": 34127, "ELEMENT_SET_NO": 999, "REV_AT_EPOCH": 86968, "BSTAR": 0.0015007416, "MEAN_MOTION_DOT": 4.276e-05, "MEAN_MOTION_DDOT": 0}, "tle": {"line1": "1 34127U 93036KY  25360.50016557  .00004276  00000+0  15007-2 0  9996", "line2": "2 34127  74.1802  18.9928 0114465 216.1466 295.7094 14.31664332869681"}}, "geometry": {"type": "Point", "coordinates": [-10.851587915035706, -59.905595071575355]}}, {"type": "Feature", "properties": {"norad_id": 34128, "name": "COSMOS 2251 DEB", "group": "cosmos-2251-debris", "lat": 67.41833701480543, "lon": -48.36250009725564, "alt_km": 544.8256340869075, "timestamp": "2025-12-26T19:22:39.303194+00:00", "meta": {"OBJECT_NAME": "COSMOS 2251 DEB", "OBJECT_ID": "1993-036KZ", "EPOCH": "2025-12-26T11:50:27.936096", "MEAN_MOTION": 15.01683236, "ECCENTRICITY": 0.00260079, "INCLINATION": 73.998, "RA_OF_ASC_NODE": 268.6447, "ARG_OF_PERICENTER": 17.8492, "MEAN_ANOMALY": 158.8983, "EPHEMERIS_TYPE": 0, "CLASSIFICATION_TYPE": "U", "NORAD_CAT_ID": 34128, "ELEMENT_SET_NO": 999, "REV_AT_EPOCH": 89373, "BSTAR": 0.0013363658, "MEAN_MOTION_DOT": 0.000175, "MEAN_MOTION_DDOT": 0}, "tle": {"line1": "1 34128U 93036KZ  25360.49337889  .00017500  00000+0  13364-2 0  9997", "line2": "2 34128  73.9980 268.6447 0026007  17.8492 158.8983 15.01683236893736"}}, "geometry": {"type": "Point", "coordinates": [-48.36250009725564, 67.41833701480543]}}, {"type": "Feature", "properties": {"norad_id": 34129, "name": "COSMOS 2251 DEB", "group": "cosmos-2251-debris", "lat": 40.32891424893374, "lon": 117.92970592494616, "alt_km": 645.7680756483787, "timestamp": "2025-12-26T19:22:39.303204+00:00", "meta": {"OBJECT_NAME": "COSMOS 2251 DEB", "OBJECT_ID": "1993-036LA", "EPOCH": "2025-12-26T07:22:19.006752", "MEAN_MOTION": 14.75988713, "ECCENTRICITY": 0.00335969, "INCLINATION": 74.0358, "RA_OF_ASC_NODE": 312.973, "ARG_OF_PERICENTER": 30.5542, "MEAN_ANOMALY": 329.758, "EPHEMERIS_TYPE": 0, "CLASSIFICATION_TYPE": "U", "NORAD_CAT_ID": 34129, "ELEMENT_SET_NO": 999, "REV_AT_EPOCH": 61498, "BSTAR": 0.0015494502, "MEAN_MOTION_DOT": 0.00010749, "MEAN_MOTION_DDOT": 0}, "tle": {"line1": "1 34129U 93036LA  25360.30716443  .00010749  00000+0  15495-2 0  9990", "line2": "2 34129  74.0358 312.9730 0033596  30.5542 329.7580 14.75988713614983"}}, "geometry": {"type": "Point", "coordinates": [117.92970592494616, 40.32891424893374]}}, {"type": "Feature", "properties": {"norad_id": 34136, "name": "COSMOS 2251 DEB", "group": "cosmos-2251-debris", "lat": 30.800874607139047, "lon": -174.95032551214197, "alt_km": 568.9941218347212, "timestamp": "2025-12-26T19:22:39.303215+00:00", "meta": {"OBJECT_NAME": "COSMOS 2251 DEB", "OBJECT_ID": "1993-036LH", "EPOCH": "2025-12-26T11:16:59.568960", "MEAN_MOTION": 14.8016249, "ECCENTRICITY": 0.00848954, "INCLINATION": 74.02, "RA_OF_ASC_NODE": 15.5507, "ARG_OF_PERICENTER": 134.7343, "MEAN_ANOMALY": 16.3589, "EPHEMERIS_TYPE": 0, "CLASSIFICATION_TYPE": "U", "NORAD_CAT_ID": 34136, "ELEMENT_SET_NO": 999, "REV_AT_EPOCH": 90213, "BSTAR": 0.00036087214, "MEAN_MOTION_DOT": 2.878e-05, "MEAN_MOTION_DDOT": 0}, "tle": {"line1": "1 34136U 93036LH  25360.47013390  .00002878  00000+0  36087-3 0  9992", "line2": "2 34136  74.0200  15.5507 0084895 134.7343  16.3589 14.80162490902136"}}, "geometry": {"type": "Point", "coordinates": [-174.95032551214197, 30.800874607139047]}}, {"type": "Feature", "properties": {"norad_id": 34139, "name": "COSMOS 2251 DEB", "group": "cosmos-2251-debris", "lat": -62.49591715135993, "lon": 80.61524757681796, "alt_km": 682.6255399640258, "timestamp": "2025-12-26T19:22:39.303225+00:00", "meta": {"OBJECT_NAME": "COSMOS 2251 DEB", "OBJECT_ID": "1993-036LL", "EPOCH": "2025-12-26T15:05:33.207648", "MEAN_MOTION": 14.59238008, "ECCENTRICITY": 0.00423905, "INCLINATION": 74.0296, "RA_OF_ASC_NODE": 227.5867, "ARG_OF_PERICENTER": 296.429, "MEAN_ANOMALY": 93.6538, "EPHEMERIS_TYPE": 0, "CLASSIFICATION_TYPE": "U", "NORAD_CAT_ID": 34139, "ELEMENT_SET_NO": 999, "REV_AT_EPOCH": 88352, "BSTAR": 0.0013330386, "MEAN_MOTION_DOT": 6.346e-05, "MEAN_MOTION_DDOT": 0}, "tle": {"line1": "1 34139U 93036LL  25360.62885657  .00006346  00000+0  13330-2 0  9994", "line2": "2 34139  74.0296 227.5867 0042390 296.4290  93.6538 14.59238008883527"}}, "geometry": {"type": "Point", "coordinates": [80.61524757681796, -62.49591715135993]}}]}